{"type":"FeatureCollection","totalFeatures":172,"features":[{"type":"Feature","id":"01_06_001_03_001_512_0000_00_00.87","geometry":{"type":"Point","coordinates":[-77.122006,-11.452808]},"geometry_name":"geom","properties":{"cod_anteri":539,"nombre":"HUAYAN","departamen":"LIMA","longitud":-77.122006,"latitud":-11.452808,"trimestre":1,"sum_dias_o":51,"conteo_eve":57,"frecuencia":0.9,"tipo":"DCC","cat_frecue":"0.5-1","categoria":"0.5-1 DCC"}},{"type":"Feature","id":"01_06_001_03_001_512_0000_00_00.91","geometry":{"type":"Point","coordinates":[-76.057928,-12.866892]},"geometry_name":"geom","properties":{"cod_anteri":638,"nombre":"PACARAN","departamen":"LIMA","longitud":-76.057928,"latitud":-12.866892,"trimestre":1,"sum_dias_o":50,"conteo_eve":57,"frecuencia":0.9,"tipo":"DCC","cat_frecue":"0.5-1","categoria":"0.5-1 DCC"}},{"type":"Feature","id":"01_06_001_03_001_512_0000_00_00.97","geometry":{"type":"Point","coordinates":[-77.550106,-11.060681]},"geometry_name":"geom","properties":{"cod_anteri":501,"nombre":"ALCANTARILLA","departamen":"LIMA","longitud":-77.550106,"latitud":-11.060681,"trimestre":1,"sum_dias_o":48,"conteo_eve":54,"frecuencia":0.9,"tipo":"DCC","cat_frecue":"0.5-1","categoria":"0.5-1 DCC"}},{"type":"Feature","id":"01_06_001_03_001_512_0000_00_00.107","geometry":{"type":"Point","coordinates":[-77.821781,-10.673975]},"geometry_name":"geom","properties":{"cod_anteri":528,"nombre":"PARAMONGA","departamen":"LIMA","longitud":-77.821781,"latitud":-10.673975,"trimestre":1,"sum_dias_o":44,"conteo_eve":56,"frecuencia":0.8,"tipo":"DCC","cat_frecue":"0.5-1","categoria":"0.5-1 DCC"}},{"type":"Feature","id":"01_06_001_03_001_512_0000_00_00.109","geometry":{"type":"Point","coordinates":[-76.841944,-11.987444]},"geometry_name":"geom","properties":{"cod_anteri":543,"nombre":"ÐAÐA","departamen":"LIMA","longitud":-76.841944,"latitud":-11.987444,"trimestre":1,"sum_dias_o":42,"conteo_eve":56,"frecuencia":0.8,"tipo":"DCC","cat_frecue":"0.5-1","categoria":"0.5-1 DCC"}},{"type":"Feature","id":"01_06_001_03_001_512_0000_00_00.112","geometry":{"type":"Point","coordinates":[-77.043167,-12.070528]},"geometry_name":"geom","properties":{"cod_anteri":6617,"nombre":"CAMPO DE MARTE","departamen":"LIMA","longitud":-77.043167,"latitud":-12.070528,"trimestre":1,"sum_dias_o":41,"conteo_eve":57,"frecuencia":0.7,"tipo":"DCC","cat_frecue":"0.5-1","categoria":"0.5-1 DCC"}},{"type":"Feature","id":"01_06_001_03_001_512_0000_00_00.128","geometry":{"type":"Point","coordinates":[-77.368392,-11.360142]},"geometry_name":"geom","properties":{"cod_anteri":534,"nombre":"LOMAS DE LACHAY","departamen":"LIMA","longitud":-77.368392,"latitud":-11.360142,"trimestre":1,"sum_dias_o":32,"conteo_eve":57,"frecuencia":0.6,"tipo":"DCC","cat_frecue":"0.5-1","categoria":"0.5-1 DCC"}},{"type":"Feature","id":"01_06_001_03_001_512_0000_00_00.151","geometry":{"type":"Point","coordinates":[-76.200272,-13.030508]},"geometry_name":"geom","properties":{"cod_anteri":6230,"nombre":"SOCSI CAÐETE","departamen":"LIMA","longitud":-76.200272,"latitud":-13.030508,"trimestre":1,"sum_dias_o":21,"conteo_eve":17,"frecuencia":1.2,"tipo":"DCC","cat_frecue":"1-1.5","categoria":"1-1.5 DCC"}},{"type":"Feature","id":"01_06_001_03_001_512_0000_00_00.159","geometry":{"type":"Point","coordinates":[-77.606028,-11.123861]},"geometry_name":"geom","properties":{"cod_anteri":111163,"nombre":"UNJF SANCHEZ CARRION - HUACHO","departamen":"LIMA","longitud":-77.606028,"latitud":-11.123861,"trimestre":1,"sum_dias_o":16,"conteo_eve":12,"frecuencia":1.3,"tipo":"DCC","cat_frecue":"1-1.5","categoria":"1-1.5 DCC"}},{"type":"Feature","id":"01_06_001_03_001_512_0000_00_00.168","geometry":{"type":"Point","coordinates":[-76.93931,-12.08221]},"geometry_name":"geom","properties":{"cod_anteri":0,"nombre":"VON HUMBOLDT","departamen":"LIMA","longitud":-76.93931,"latitud":-12.08221,"trimestre":1,"sum_dias_o":12,"conteo_eve":10,"frecuencia":1.2,"tipo":"DCC","cat_frecue":"1-1.5","categoria":"1-1.5 DCC"}},{"type":"Feature","id":"01_06_001_03_001_512_0000_00_00.172","geometry":{"type":"Point","coordinates":[-76.5,-12.083333]},"geometry_name":"geom","properties":{"cod_anteri":156100,"nombre":"ANTIOQUIA","departamen":"LIMA","longitud":-76.5,"latitud":-12.083333,"trimestre":1,"sum_dias_o":9,"conteo_eve":56,"frecuencia":0.2,"tipo":"DCC","cat_frecue":"0.1-0.5","categoria":"0.1-0.5 DCC"}}],"crs":{"type":"name","properties":{"name":"urn:ogc:def:crs:EPSG::4326"}}}