{"type":"FeatureCollection","totalFeatures":172,"features":[{"type":"Feature","id":"01_06_001_03_001_512_0000_00_00.1","geometry":{"type":"Point","coordinates":[-76.290556,-6.776306]},"geometry_name":"geom","properties":{"cod_anteri":153316,"nombre":"PILLUANA","departamen":"SAN MARTIN","longitud":-76.290556,"latitud":-6.776306,"trimestre":1,"sum_dias_o":15,"conteo_eve":56,"frecuencia":0.3,"tipo":"OC","cat_frecue":"0.1-0.5","categoria":"0.1-0.5 OC"}},{"type":"Feature","id":"01_06_001_03_001_512_0000_00_00.2","geometry":{"type":"Point","coordinates":[-77.93928,-4.83039]},"geometry_name":"geom","properties":{"cod_anteri":256,"nombre":"SANTA MARIA DE NIEVA","departamen":"AMAZONAS","longitud":-77.93928,"latitud":-4.83039,"trimestre":1,"sum_dias_o":16,"conteo_eve":57,"frecuencia":0.3,"tipo":"OC","cat_frecue":"0.1-0.5","categoria":"0.1-0.5 OC"}},{"type":"Feature","id":"01_06_001_03_001_512_0000_00_00.3","geometry":{"type":"Point","coordinates":[-76.250501,-6.067035]},"geometry_name":"geom","properties":{"cod_anteri":153315,"nombre":"SHANUSI","departamen":"LORETO","longitud":-76.250501,"latitud":-6.067035,"trimestre":1,"sum_dias_o":16,"conteo_eve":56,"frecuencia":0.3,"tipo":"OC","cat_frecue":"0.1-0.5","categoria":"0.1-0.5 OC"}},{"type":"Feature","id":"01_06_001_03_001_512_0000_00_00.4","geometry":{"type":"Point","coordinates":[-76.907611,-6.11275]},"geometry_name":"geom","properties":{"cod_anteri":153300,"nombre":"JEPELACIO","departamen":"SAN MARTIN","longitud":-76.907611,"latitud":-6.11275,"trimestre":1,"sum_dias_o":17,"conteo_eve":56,"frecuencia":0.3,"tipo":"OC","cat_frecue":"0.1-0.5","categoria":"0.1-0.5 OC"}},{"type":"Feature","id":"01_06_001_03_001_512_0000_00_00.5","geometry":{"type":"Point","coordinates":[-75.802503,-6.215314]},"geometry_name":"geom","properties":{"cod_anteri":153322,"nombre":"PELEJO","departamen":"SAN MARTIN","longitud":-75.802503,"latitud":-6.215314,"trimestre":1,"sum_dias_o":18,"conteo_eve":57,"frecuencia":0.3,"tipo":"OC","cat_frecue":"0.1-0.5","categoria":"0.1-0.5 OC"}},{"type":"Feature","id":"01_06_001_03_001_512_0000_00_00.6","geometry":{"type":"Point","coordinates":[-72.767381,-3.421342]},"geometry_name":"geom","properties":{"cod_anteri":151500,"nombre":"FRANCISCO ORELLANA","departamen":"LORETO","longitud":-72.767381,"latitud":-3.421342,"trimestre":1,"sum_dias_o":19,"conteo_eve":57,"frecuencia":0.3,"tipo":"OC","cat_frecue":"0.1-0.5","categoria":"0.1-0.5 OC"}},{"type":"Feature","id":"01_06_001_03_001_512_0000_00_00.7","geometry":{"type":"Point","coordinates":[-78.233941,-5.892688]},"geometry_name":"geom","properties":{"cod_anteri":152206,"nombre":"JAMALCA","departamen":"AMAZONAS","longitud":-78.233941,"latitud":-5.892688,"trimestre":1,"sum_dias_o":19,"conteo_eve":57,"frecuencia":0.3,"tipo":"OC","cat_frecue":"0.1-0.5","categoria":"0.1-0.5 OC"}},{"type":"Feature","id":"01_06_001_03_001_512_0000_00_00.8","geometry":{"type":"Point","coordinates":[-73.58375,-4.513361]},"geometry_name":"geom","properties":{"cod_anteri":279,"nombre":"NAUTA","departamen":"LORETO","longitud":-73.58375,"latitud":-4.513361,"trimestre":1,"sum_dias_o":20,"conteo_eve":57,"frecuencia":0.4,"tipo":"OC","cat_frecue":"0.1-0.5","categoria":"0.1-0.5 OC"}},{"type":"Feature","id":"01_06_001_03_001_512_0000_00_00.9","geometry":{"type":"Point","coordinates":[-72.278486,-12.678839]},"geometry_name":"geom","properties":{"cod_anteri":654,"nombre":"QUEBRADA YANATILE","departamen":"CUSCO","longitud":-72.278486,"latitud":-12.678839,"trimestre":1,"sum_dias_o":20,"conteo_eve":21,"frecuencia":1,"tipo":"OC","cat_frecue":"1-1.5","categoria":"1-1.5 OC"}},{"type":"Feature","id":"01_06_001_03_001_512_0000_00_00.10","geometry":{"type":"Point","coordinates":[-77.097083,-6.143833]},"geometry_name":"geom","properties":{"cod_anteri":153226,"nombre":"SORITOR","departamen":"SAN MARTIN","longitud":-77.097083,"latitud":-6.143833,"trimestre":1,"sum_dias_o":21,"conteo_eve":56,"frecuencia":0.4,"tipo":"OC","cat_frecue":"0.1-0.5","categoria":"0.1-0.5 OC"}},{"type":"Feature","id":"01_06_001_03_001_512_0000_00_00.11","geometry":{"type":"Point","coordinates":[-69.208848,-12.587299]},"geometry_name":"geom","properties":{"cod_anteri":808,"nombre":"PUERTO MALDONADO","departamen":"MADRE DE DIOS","longitud":-69.208848,"latitud":-12.587299,"trimestre":1,"sum_dias_o":21,"conteo_eve":24,"frecuencia":0.9,"tipo":"OC","cat_frecue":"0.5-1","categoria":"0.5-1 OC"}},{"type":"Feature","id":"01_06_001_03_001_512_0000_00_00.12","geometry":{"type":"Point","coordinates":[-76.407197,-6.412739]},"geometry_name":"geom","properties":{"cod_anteri":153314,"nombre":"SAN ANTONIO","departamen":"SAN MARTIN","longitud":-76.407197,"latitud":-6.412739,"trimestre":1,"sum_dias_o":22,"conteo_eve":57,"frecuencia":0.4,"tipo":"OC","cat_frecue":"0.1-0.5","categoria":"0.1-0.5 OC"}},{"type":"Feature","id":"01_06_001_03_001_512_0000_00_00.13","geometry":{"type":"Point","coordinates":[-78.435528,-5.419936]},"geometry_name":"geom","properties":{"cod_anteri":261,"nombre":"ARAMANGO","departamen":"AMAZONAS","longitud":-78.435528,"latitud":-5.419936,"trimestre":1,"sum_dias_o":22,"conteo_eve":26,"frecuencia":0.8,"tipo":"OC","cat_frecue":"0.5-1","categoria":"0.5-1 OC"}},{"type":"Feature","id":"01_06_001_03_001_512_0000_00_00.14","geometry":{"type":"Point","coordinates":[-73.33833,-3.89967]},"geometry_name":"geom","properties":{"cod_anteri":153,"nombre":"MORALILLO","departamen":"LORETO","longitud":-73.33833,"latitud":-3.89967,"trimestre":1,"sum_dias_o":23,"conteo_eve":21,"frecuencia":1.1,"tipo":"OC","cat_frecue":"1-1.5","categoria":"1-1.5 OC"}},{"type":"Feature","id":"01_06_001_03_001_512_0000_00_00.15","geometry":{"type":"Point","coordinates":[-71.467778,-13.023889]},"geometry_name":"geom","properties":{"cod_anteri":6671,"nombre":"CHONTACHACA","departamen":"CUSCO","longitud":-71.467778,"latitud":-13.023889,"trimestre":1,"sum_dias_o":23,"conteo_eve":21,"frecuencia":1.1,"tipo":"OC","cat_frecue":"1-1.5","categoria":"1-1.5 OC"}},{"type":"Feature","id":"01_06_001_03_001_512_0000_00_00.16","geometry":{"type":"Point","coordinates":[-76.55477,-4.82954]},"geometry_name":"geom","properties":{"cod_anteri":152102,"nombre":"SAN LORENZO","departamen":"LORETO","longitud":-76.55477,"latitud":-4.82954,"trimestre":1,"sum_dias_o":23,"conteo_eve":21,"frecuencia":1.1,"tipo":"OC","cat_frecue":"1-1.5","categoria":"1-1.5 OC"}},{"type":"Feature","id":"01_06_001_03_001_512_0000_00_00.17","geometry":{"type":"Point","coordinates":[-70.409987,-13.460871]},"geometry_name":"geom","properties":{"cod_anteri":156401,"nombre":"SAN GABAN","departamen":"PUNO","longitud":-70.409987,"latitud":-13.460871,"trimestre":1,"sum_dias_o":24,"conteo_eve":56,"frecuencia":0.4,"tipo":"OC","cat_frecue":"0.1-0.5","categoria":"0.1-0.5 OC"}},{"type":"Feature","id":"01_06_001_03_001_512_0000_00_00.18","geometry":{"type":"Point","coordinates":[-75.546219,-10.086815]},"geometry_name":"geom","properties":{"cod_anteri":556,"nombre":"POZUZO","departamen":"PASCO","longitud":-75.546219,"latitud":-10.086815,"trimestre":1,"sum_dias_o":25,"conteo_eve":56,"frecuencia":0.4,"tipo":"OC","cat_frecue":"0.1-0.5","categoria":"0.1-0.5 OC"}},{"type":"Feature","id":"01_06_001_03_001_512_0000_00_00.19","geometry":{"type":"Point","coordinates":[-75.485,-9.1203]},"geometry_name":"geom","properties":{"cod_anteri":453,"nombre":"LA DIVISORIA","departamen":"HUANUCO","longitud":-75.485,"latitud":-9.1203,"trimestre":1,"sum_dias_o":25,"conteo_eve":25,"frecuencia":1,"tipo":"OC","cat_frecue":"1-1.5","categoria":"1-1.5 OC"}},{"type":"Feature","id":"01_06_001_03_001_512_0000_00_00.20","geometry":{"type":"Point","coordinates":[-76.653111,-7.484344]},"geometry_name":"geom","properties":{"cod_anteri":3304,"nombre":"CAMPANILLA","departamen":"SAN MARTIN","longitud":-76.653111,"latitud":-7.484344,"trimestre":1,"sum_dias_o":26,"conteo_eve":57,"frecuencia":0.5,"tipo":"OC","cat_frecue":"0.5-1","categoria":"0.5-1 OC"}},{"type":"Feature","id":"01_06_001_03_001_512_0000_00_00.21","geometry":{"type":"Point","coordinates":[-75.0548,-8.2659]},"geometry_name":"geom","properties":{"cod_anteri":459,"nombre":"EL MARONAL","departamen":"UCAYALI","longitud":-75.0548,"latitud":-8.2659,"trimestre":1,"sum_dias_o":26,"conteo_eve":27,"frecuencia":1,"tipo":"OC","cat_frecue":"1-1.5","categoria":"1-1.5 OC"}},{"type":"Feature","id":"01_06_001_03_001_512_0000_00_00.22","geometry":{"type":"Point","coordinates":[-76.625333,-6.395333]},"geometry_name":"geom","properties":{"cod_anteri":322,"nombre":"TABALOSOS","departamen":"SAN MARTIN","longitud":-76.625333,"latitud":-6.395333,"trimestre":1,"sum_dias_o":27,"conteo_eve":57,"frecuencia":0.5,"tipo":"OC","cat_frecue":"0.5-1","categoria":"0.5-1 OC"}},{"type":"Feature","id":"01_06_001_03_001_512_0000_00_00.23","geometry":{"type":"Point","coordinates":[-76.28175,-6.330472]},"geometry_name":"geom","properties":{"cod_anteri":3317,"nombre":"PONGO DE CAYNARACHI","departamen":"SAN MARTIN","longitud":-76.28175,"latitud":-6.330472,"trimestre":1,"sum_dias_o":27,"conteo_eve":57,"frecuencia":0.5,"tipo":"OC","cat_frecue":"0.5-1","categoria":"0.5-1 OC"}},{"type":"Feature","id":"01_06_001_03_001_512_0000_00_00.24","geometry":{"type":"Point","coordinates":[-75.21639,-8.83444]},"geometry_name":"geom","properties":{"cod_anteri":2412,"nombre":"SAN ALEJANDRO","departamen":"UCAYALI","longitud":-75.21639,"latitud":-8.83444,"trimestre":1,"sum_dias_o":27,"conteo_eve":27,"frecuencia":1,"tipo":"OC","cat_frecue":"1-1.5","categoria":"1-1.5 OC"}},{"type":"Feature","id":"01_06_001_03_001_512_0000_00_00.25","geometry":{"type":"Point","coordinates":[-75.3022,-9.0232]},"geometry_name":"geom","properties":{"cod_anteri":462,"nombre":"AGUAYTIA","departamen":"UCAYALI","longitud":-75.3022,"latitud":-9.0232,"trimestre":1,"sum_dias_o":28,"conteo_eve":57,"frecuencia":0.5,"tipo":"OC","cat_frecue":"0.5-1","categoria":"0.5-1 OC"}},{"type":"Feature","id":"01_06_001_03_001_512_0000_00_00.26","geometry":{"type":"Point","coordinates":[-74.5739,-9.2253]},"geometry_name":"geom","properties":{"cod_anteri":478,"nombre":"PUERTO INCA","departamen":"HUANUCO","longitud":-74.5739,"latitud":-9.2253,"trimestre":1,"sum_dias_o":28,"conteo_eve":57,"frecuencia":0.5,"tipo":"OC","cat_frecue":"0.5-1","categoria":"0.5-1 OC"}},{"type":"Feature","id":"01_06_001_03_001_512_0000_00_00.27","geometry":{"type":"Point","coordinates":[-72.877094,-5.149844]},"geometry_name":"geom","properties":{"cod_anteri":269,"nombre":"ANGAMOS","departamen":"LORETO","longitud":-72.877094,"latitud":-5.149844,"trimestre":1,"sum_dias_o":28,"conteo_eve":26,"frecuencia":1.1,"tipo":"OC","cat_frecue":"1-1.5","categoria":"1-1.5 OC"}},{"type":"Feature","id":"01_06_001_03_001_512_0000_00_00.28","geometry":{"type":"Point","coordinates":[-78.470972,-6.000389]},"geometry_name":"geom","properties":{"cod_anteri":3332,"nombre":"EL PALTO","departamen":"AMAZONAS","longitud":-78.470972,"latitud":-6.000389,"trimestre":1,"sum_dias_o":28,"conteo_eve":17,"frecuencia":1.6,"tipo":"OC","cat_frecue":"1.5-2","categoria":"1.5-2 OC"}},{"type":"Feature","id":"01_06_001_03_001_512_0000_00_00.29","geometry":{"type":"Point","coordinates":[-76.768228,-6.943131]},"geometry_name":"geom","properties":{"cod_anteri":211,"nombre":"SAPOSOA","departamen":"SAN MARTIN","longitud":-76.768228,"latitud":-6.943131,"trimestre":1,"sum_dias_o":29,"conteo_eve":54,"frecuencia":0.5,"tipo":"OC","cat_frecue":"0.5-1","categoria":"0.5-1 OC"}},{"type":"Feature","id":"01_06_001_03_001_512_0000_00_00.30","geometry":{"type":"Point","coordinates":[-78.288056,-5.161444]},"geometry_name":"geom","properties":{"cod_anteri":229,"nombre":"CHIRIACO","departamen":"AMAZONAS","longitud":-78.288056,"latitud":-5.161444,"trimestre":1,"sum_dias_o":29,"conteo_eve":27,"frecuencia":1.1,"tipo":"OC","cat_frecue":"1-1.5","categoria":"1-1.5 OC"}},{"type":"Feature","id":"01_06_001_03_001_512_0000_00_00.31","geometry":{"type":"Point","coordinates":[-73.67919,-2.48757]},"geometry_name":"geom","properties":{"cod_anteri":177,"nombre":"SANTA CLOTILDE","departamen":"LORETO","longitud":-73.67919,"latitud":-2.48757,"trimestre":1,"sum_dias_o":30,"conteo_eve":57,"frecuencia":0.5,"tipo":"OC","cat_frecue":"0.5-1","categoria":"0.5-1 OC"}},{"type":"Feature","id":"01_06_001_03_001_512_0000_00_00.32","geometry":{"type":"Point","coordinates":[-69.578,-10.955889]},"geometry_name":"geom","properties":{"cod_anteri":590,"nombre":"IÐAPARI","departamen":"MADRE DE DIOS","longitud":-69.578,"latitud":-10.955889,"trimestre":1,"sum_dias_o":30,"conteo_eve":56,"frecuencia":0.5,"tipo":"OC","cat_frecue":"0.5-1","categoria":"0.5-1 OC"}},{"type":"Feature","id":"01_06_001_03_001_512_0000_00_00.33","geometry":{"type":"Point","coordinates":[-74.305071,-11.146695]},"geometry_name":"geom","properties":{"cod_anteri":572,"nombre":"PUERTO OCOPA","departamen":"JUNIN","longitud":-74.305071,"latitud":-11.146695,"trimestre":1,"sum_dias_o":31,"conteo_eve":57,"frecuencia":0.5,"tipo":"OC","cat_frecue":"0.5-1","categoria":"0.5-1 OC"}},{"type":"Feature","id":"01_06_001_03_001_512_0000_00_00.34","geometry":{"type":"Point","coordinates":[-77.392639,-5.809639]},"geometry_name":"geom","properties":{"cod_anteri":219,"nombre":"NARANJILLO","departamen":"SAN MARTIN","longitud":-77.392639,"latitud":-5.809639,"trimestre":1,"sum_dias_o":31,"conteo_eve":45,"frecuencia":0.7,"tipo":"OC","cat_frecue":"0.5-1","categoria":"0.5-1 OC"}},{"type":"Feature","id":"01_06_001_03_001_512_0000_00_00.35","geometry":{"type":"Point","coordinates":[-73.08182,-3.48817]},"geometry_name":"geom","properties":{"cod_anteri":150,"nombre":"MAZAN","departamen":"LORETO","longitud":-73.08182,"latitud":-3.48817,"trimestre":1,"sum_dias_o":31,"conteo_eve":29,"frecuencia":1.1,"tipo":"OC","cat_frecue":"1-1.5","categoria":"1-1.5 OC"}},{"type":"Feature","id":"01_06_001_03_001_512_0000_00_00.36","geometry":{"type":"Point","coordinates":[-73.25492,-3.76397]},"geometry_name":"geom","properties":{"cod_anteri":154,"nombre":"AMAZONAS","departamen":"LORETO","longitud":-73.25492,"latitud":-3.76397,"trimestre":1,"sum_dias_o":31,"conteo_eve":18,"frecuencia":1.7,"tipo":"OC","cat_frecue":"1.5-2","categoria":"1.5-2 OC"}},{"type":"Feature","id":"01_06_001_03_001_512_0000_00_00.37","geometry":{"type":"Point","coordinates":[-74.866797,-10.933472]},"geometry_name":"geom","properties":{"cod_anteri":476,"nombre":"PICHANAKY","departamen":"JUNIN","longitud":-74.866797,"latitud":-10.933472,"trimestre":1,"sum_dias_o":32,"conteo_eve":25,"frecuencia":1.3,"tipo":"OC","cat_frecue":"1-1.5","categoria":"1-1.5 OC"}},{"type":"Feature","id":"01_06_001_03_001_512_0000_00_00.38","geometry":{"type":"Point","coordinates":[-76.738056,-6.517]},"geometry_name":"geom","properties":{"cod_anteri":3308,"nombre":"ALAO","departamen":"SAN MARTIN","longitud":-76.738056,"latitud":-6.517,"trimestre":1,"sum_dias_o":33,"conteo_eve":48,"frecuencia":0.7,"tipo":"OC","cat_frecue":"0.5-1","categoria":"0.5-1 OC"}},{"type":"Feature","id":"01_06_001_03_001_512_0000_00_00.39","geometry":{"type":"Point","coordinates":[-74.3416,-8.2447]},"geometry_name":"geom","properties":{"cod_anteri":449,"nombre":"PUCALLPA","departamen":"UCAYALI","longitud":-74.3416,"latitud":-8.2447,"trimestre":1,"sum_dias_o":33,"conteo_eve":27,"frecuencia":1.2,"tipo":"OC","cat_frecue":"1-1.5","categoria":"1-1.5 OC"}},{"type":"Feature","id":"01_06_001_03_001_512_0000_00_00.40","geometry":{"type":"Point","coordinates":[-76.770917,-7.293222]},"geometry_name":"geom","properties":{"cod_anteri":379,"nombre":"PACHIZA","departamen":"SAN MARTIN","longitud":-76.770917,"latitud":-7.293222,"trimestre":1,"sum_dias_o":34,"conteo_eve":57,"frecuencia":0.6,"tipo":"OC","cat_frecue":"0.5-1","categoria":"0.5-1 OC"}},{"type":"Feature","id":"01_06_001_03_001_512_0000_00_00.41","geometry":{"type":"Point","coordinates":[-74.4231,-8.5538]},"geometry_name":"geom","properties":{"cod_anteri":480,"nombre":"TOURNAVISTA","departamen":"HUANUCO","longitud":-74.4231,"latitud":-8.5538,"trimestre":1,"sum_dias_o":34,"conteo_eve":55,"frecuencia":0.6,"tipo":"OC","cat_frecue":"0.5-1","categoria":"0.5-1 OC"}},{"type":"Feature","id":"01_06_001_03_001_512_0000_00_00.42","geometry":{"type":"Point","coordinates":[-77.975694,-5.944844]},"geometry_name":"geom","properties":{"cod_anteri":272,"nombre":"JAZAN","departamen":"AMAZONAS","longitud":-77.975694,"latitud":-5.944844,"trimestre":1,"sum_dias_o":34,"conteo_eve":27,"frecuencia":1.3,"tipo":"OC","cat_frecue":"1-1.5","categoria":"1-1.5 OC"}},{"type":"Feature","id":"01_06_001_03_001_512_0000_00_00.43","geometry":{"type":"Point","coordinates":[-76.370389,-6.475972]},"geometry_name":"geom","properties":{"cod_anteri":401,"nombre":"TARAPOTO","departamen":"SAN MARTIN","longitud":-76.370389,"latitud":-6.475972,"trimestre":1,"sum_dias_o":35,"conteo_eve":22,"frecuencia":1.6,"tipo":"OC","cat_frecue":"1.5-2","categoria":"1.5-2 OC"}},{"type":"Feature","id":"01_06_001_03_001_512_0000_00_00.44","geometry":{"type":"Point","coordinates":[-76.558361,-7.055167]},"geometry_name":"geom","properties":{"cod_anteri":382,"nombre":"BELLAVISTA","departamen":"SAN MARTIN","longitud":-76.558361,"latitud":-7.055167,"trimestre":1,"sum_dias_o":36,"conteo_eve":57,"frecuencia":0.6,"tipo":"OC","cat_frecue":"0.5-1","categoria":"0.5-1 OC"}},{"type":"Feature","id":"01_06_001_03_001_512_0000_00_00.45","geometry":{"type":"Point","coordinates":[-76.3449,-8.0654]},"geometry_name":"geom","properties":{"cod_anteri":446,"nombre":"TANANTA","departamen":"SAN MARTIN","longitud":-76.3449,"latitud":-8.0654,"trimestre":1,"sum_dias_o":36,"conteo_eve":28,"frecuencia":1.3,"tipo":"OC","cat_frecue":"1-1.5","categoria":"1-1.5 OC"}},{"type":"Feature","id":"01_06_001_03_001_512_0000_00_00.46","geometry":{"type":"Point","coordinates":[-76.0642,-8.5547]},"geometry_name":"geom","properties":{"cod_anteri":474,"nombre":"AUCAYACU","departamen":"HUANUCO","longitud":-76.0642,"latitud":-8.5547,"trimestre":1,"sum_dias_o":37,"conteo_eve":46,"frecuencia":0.8,"tipo":"OC","cat_frecue":"0.5-1","categoria":"0.5-1 OC"}},{"type":"Feature","id":"01_06_001_03_001_512_0000_00_00.47","geometry":{"type":"Point","coordinates":[-75.418447,-10.564244]},"geometry_name":"geom","properties":{"cod_anteri":557,"nombre":"OXAPAMPA","departamen":"PASCO","longitud":-75.418447,"latitud":-10.564244,"trimestre":1,"sum_dias_o":39,"conteo_eve":57,"frecuencia":0.7,"tipo":"OC","cat_frecue":"0.5-1","categoria":"0.5-1 OC"}},{"type":"Feature","id":"01_06_001_03_001_512_0000_00_00.48","geometry":{"type":"Point","coordinates":[-74.5158,-8.3456]},"geometry_name":"geom","properties":{"cod_anteri":458,"nombre":"LAS PALMERAS DE UCAYALI","departamen":"UCAYALI","longitud":-74.5158,"latitud":-8.3456,"trimestre":1,"sum_dias_o":39,"conteo_eve":23,"frecuencia":1.7,"tipo":"OC","cat_frecue":"1.5-2","categoria":"1.5-2 OC"}},{"type":"Feature","id":"01_06_001_03_001_512_0000_00_00.49","geometry":{"type":"Point","coordinates":[-76.49275,-7.16319]},"geometry_name":"geom","properties":{"cod_anteri":384,"nombre":"LA UNION","departamen":"SAN MARTIN","longitud":-76.49275,"latitud":-7.16319,"trimestre":1,"sum_dias_o":40,"conteo_eve":50,"frecuencia":0.8,"tipo":"OC","cat_frecue":"0.5-1","categoria":"0.5-1 OC"}},{"type":"Feature","id":"01_06_001_03_001_512_0000_00_00.50","geometry":{"type":"Point","coordinates":[-73.29325,-3.786561]},"geometry_name":"geom","properties":{"cod_anteri":176,"nombre":"SAN ROQUE","departamen":"LORETO","longitud":-73.29325,"latitud":-3.786561,"trimestre":1,"sum_dias_o":41,"conteo_eve":40,"frecuencia":1,"tipo":"OC","cat_frecue":"1-1.5","categoria":"1-1.5 OC"}},{"type":"Feature","id":"01_06_001_03_001_512_0000_00_00.51","geometry":{"type":"Point","coordinates":[-72.691742,-12.856447]},"geometry_name":"geom","properties":{"cod_anteri":606,"nombre":"QUILLABAMBA","departamen":"CUSCO","longitud":-72.691742,"latitud":-12.856447,"trimestre":1,"sum_dias_o":42,"conteo_eve":56,"frecuencia":0.8,"tipo":"OC","cat_frecue":"0.5-1","categoria":"0.5-1 OC"}},{"type":"Feature","id":"01_06_001_03_001_512_0000_00_00.52","geometry":{"type":"Point","coordinates":[-70.511894,-3.911228]},"geometry_name":"geom","properties":{"cod_anteri":291,"nombre":"CABALLOCOCHA","departamen":"LORETO","longitud":-70.511894,"latitud":-3.911228,"trimestre":1,"sum_dias_o":43,"conteo_eve":57,"frecuencia":0.8,"tipo":"OC","cat_frecue":"0.5-1","categoria":"0.5-1 OC"}},{"type":"Feature","id":"01_06_001_03_001_512_0000_00_00.53","geometry":{"type":"Point","coordinates":[-73.377044,-3.828606]},"geometry_name":"geom","properties":{"cod_anteri":152,"nombre":"PUERTO ALMENDRA","departamen":"LORETO","longitud":-73.377044,"latitud":-3.828606,"trimestre":1,"sum_dias_o":45,"conteo_eve":33,"frecuencia":1.4,"tipo":"OC","cat_frecue":"1-1.5","categoria":"1-1.5 OC"}},{"type":"Feature","id":"01_06_001_03_001_512_0000_00_00.54","geometry":{"type":"Point","coordinates":[-74.608688,-11.224671]},"geometry_name":"geom","properties":{"cod_anteri":571,"nombre":"SATIPO","departamen":"JUNIN","longitud":-74.608688,"latitud":-11.224671,"trimestre":1,"sum_dias_o":46,"conteo_eve":57,"frecuencia":0.8,"tipo":"OC","cat_frecue":"0.5-1","categoria":"0.5-1 OC"}},{"type":"Feature","id":"01_06_001_03_001_512_0000_00_00.55","geometry":{"type":"Point","coordinates":[-70.754403,-13.228931]},"geometry_name":"geom","properties":{"cod_anteri":693,"nombre":"QUINCEMIL","departamen":"CUSCO","longitud":-70.754403,"latitud":-13.228931,"trimestre":1,"sum_dias_o":47,"conteo_eve":56,"frecuencia":0.8,"tipo":"OC","cat_frecue":"0.5-1","categoria":"0.5-1 OC"}},{"type":"Feature","id":"01_06_001_03_001_512_0000_00_00.56","geometry":{"type":"Point","coordinates":[-75.006381,-7.352558]},"geometry_name":"geom","properties":{"cod_anteri":387,"nombre":"CONTAMANA","departamen":"LORETO","longitud":-75.006381,"latitud":-7.352558,"trimestre":1,"sum_dias_o":49,"conteo_eve":57,"frecuencia":0.9,"tipo":"OC","cat_frecue":"0.5-1","categoria":"0.5-1 OC"}},{"type":"Feature","id":"01_06_001_03_001_512_0000_00_00.57","geometry":{"type":"Point","coordinates":[-73.83612,-5.04308]},"geometry_name":"geom","properties":{"cod_anteri":280,"nombre":"REQUENA","departamen":"LORETO","longitud":-73.83612,"latitud":-5.04308,"trimestre":1,"sum_dias_o":50,"conteo_eve":57,"frecuencia":0.9,"tipo":"OC","cat_frecue":"0.5-1","categoria":"0.5-1 OC"}},{"type":"Feature","id":"01_06_001_03_001_512_0000_00_00.58","geometry":{"type":"Point","coordinates":[-76.118132,-5.935592]},"geometry_name":"geom","properties":{"cod_anteri":278,"nombre":"SAN RAMON","departamen":"LORETO","longitud":-76.118132,"latitud":-5.935592,"trimestre":1,"sum_dias_o":50,"conteo_eve":51,"frecuencia":1,"tipo":"OC","cat_frecue":"1-1.5","categoria":"1-1.5 OC"}},{"type":"Feature","id":"01_06_001_03_001_512_0000_00_00.59","geometry":{"type":"Point","coordinates":[-71.858828,-3.318769]},"geometry_name":"geom","properties":{"cod_anteri":180,"nombre":"PEBAS","departamen":"LORETO","longitud":-71.858828,"latitud":-3.318769,"trimestre":1,"sum_dias_o":54,"conteo_eve":57,"frecuencia":0.9,"tipo":"OC","cat_frecue":"0.5-1","categoria":"0.5-1 OC"}},{"type":"Feature","id":"01_06_001_03_001_512_0000_00_00.60","geometry":{"type":"Point","coordinates":[-76.200994,-6.694317]},"geometry_name":"geom","properties":{"cod_anteri":385,"nombre":"SAUCE","departamen":"SAN MARTIN","longitud":-76.200994,"latitud":-6.694317,"trimestre":1,"sum_dias_o":54,"conteo_eve":57,"frecuencia":0.9,"tipo":"OC","cat_frecue":"0.5-1","categoria":"0.5-1 OC"}},{"type":"Feature","id":"01_06_001_03_001_512_0000_00_00.61","geometry":{"type":"Point","coordinates":[-73.669442,-4.910036]},"geometry_name":"geom","properties":{"cod_anteri":281,"nombre":"GENARO HERRERA","departamen":"LORETO","longitud":-73.669442,"latitud":-4.910036,"trimestre":1,"sum_dias_o":54,"conteo_eve":49,"frecuencia":1.1,"tipo":"OC","cat_frecue":"1-1.5","categoria":"1-1.5 OC"}},{"type":"Feature","id":"01_06_001_03_001_512_0000_00_00.62","geometry":{"type":"Point","coordinates":[-76.31825,-6.589028]},"geometry_name":"geom","properties":{"cod_anteri":310,"nombre":"EL PORVENIR","departamen":"SAN MARTIN","longitud":-76.31825,"latitud":-6.589028,"trimestre":1,"sum_dias_o":55,"conteo_eve":57,"frecuencia":1,"tipo":"OC","cat_frecue":"1-1.5","categoria":"1-1.5 OC"}},{"type":"Feature","id":"01_06_001_03_001_512_0000_00_00.63","geometry":{"type":"Point","coordinates":[-76.968222,-6.044806]},"geometry_name":"geom","properties":{"cod_anteri":378,"nombre":"MOYOBAMBA","departamen":"SAN MARTIN","longitud":-76.968222,"latitud":-6.044806,"trimestre":1,"sum_dias_o":56,"conteo_eve":57,"frecuencia":1,"tipo":"OC","cat_frecue":"1-1.5","categoria":"1-1.5 OC"}},{"type":"Feature","id":"01_06_001_03_001_512_0000_00_00.64","geometry":{"type":"Point","coordinates":[-76.527944,-6.41874]},"geometry_name":"geom","properties":{"cod_anteri":383,"nombre":"LAMAS","departamen":"SAN MARTIN","longitud":-76.527944,"latitud":-6.41874,"trimestre":1,"sum_dias_o":57,"conteo_eve":57,"frecuencia":1,"tipo":"OC","cat_frecue":"1-1.5","categoria":"1-1.5 OC"}},{"type":"Feature","id":"01_06_001_03_001_512_0000_00_00.65","geometry":{"type":"Point","coordinates":[-76.0033,-9.0849]},"geometry_name":"geom","properties":{"cod_anteri":469,"nombre":"TULUMAYO","departamen":"HUANUCO","longitud":-76.0033,"latitud":-9.0849,"trimestre":1,"sum_dias_o":57,"conteo_eve":55,"frecuencia":1,"tipo":"OC","cat_frecue":"1-1.5","categoria":"1-1.5 OC"}},{"type":"Feature","id":"01_06_001_03_001_512_0000_00_00.66","geometry":{"type":"Point","coordinates":[-76.0001,-9.183]},"geometry_name":"geom","properties":{"cod_anteri":468,"nombre":"TINGO MARIA","departamen":"HUANUCO","longitud":-76.0001,"latitud":-9.183,"trimestre":1,"sum_dias_o":59,"conteo_eve":57,"frecuencia":1,"tipo":"OC","cat_frecue":"1-1.5","categoria":"1-1.5 OC"}},{"type":"Feature","id":"01_06_001_03_001_512_0000_00_00.67","geometry":{"type":"Point","coordinates":[-73.16112,-4.00356]},"geometry_name":"geom","properties":{"cod_anteri":172,"nombre":"TAMSHIYACU","departamen":"LORETO","longitud":-73.16112,"latitud":-4.00356,"trimestre":1,"sum_dias_o":59,"conteo_eve":50,"frecuencia":1.2,"tipo":"OC","cat_frecue":"1-1.5","categoria":"1-1.5 OC"}},{"type":"Feature","id":"01_06_001_03_001_512_0000_00_00.68","geometry":{"type":"Point","coordinates":[-77.171972,-6.047278]},"geometry_name":"geom","properties":{"cod_anteri":377,"nombre":"RIOJA","departamen":"SAN MARTIN","longitud":-77.171972,"latitud":-6.047278,"trimestre":1,"sum_dias_o":60,"conteo_eve":57,"frecuencia":1.1,"tipo":"OC","cat_frecue":"1-1.5","categoria":"1-1.5 OC"}},{"type":"Feature","id":"01_06_001_03_001_512_0000_00_00.69","geometry":{"type":"Point","coordinates":[-75.731444,-6.375861]},"geometry_name":"geom","properties":{"cod_anteri":386,"nombre":"NAVARRO","departamen":"SAN MARTIN","longitud":-75.731444,"latitud":-6.375861,"trimestre":1,"sum_dias_o":60,"conteo_eve":57,"frecuencia":1.1,"tipo":"OC","cat_frecue":"1-1.5","categoria":"1-1.5 OC"}},{"type":"Feature","id":"01_06_001_03_001_512_0000_00_00.70","geometry":{"type":"Point","coordinates":[-78.533958,-5.661483]},"geometry_name":"geom","properties":{"cod_anteri":253,"nombre":"BAGUA CHICA","departamen":"AMAZONAS","longitud":-78.533958,"latitud":-5.661483,"trimestre":1,"sum_dias_o":62,"conteo_eve":54,"frecuencia":1.1,"tipo":"OC","cat_frecue":"1-1.5","categoria":"1-1.5 OC"}},{"type":"Feature","id":"01_06_001_03_001_512_0000_00_00.71","geometry":{"type":"Point","coordinates":[-73.362586,-15.775681]},"geometry_name":"geom","properties":{"cod_anteri":746,"nombre":"CARAVELI","departamen":"AREQUIPA","longitud":-73.362586,"latitud":-15.775681,"trimestre":1,"sum_dias_o":71,"conteo_eve":57,"frecuencia":1.2,"tipo":"DCC","cat_frecue":"1-1.5","categoria":"1-1.5 DCC"}},{"type":"Feature","id":"01_06_001_03_001_512_0000_00_00.72","geometry":{"type":"Point","coordinates":[-70.18611,-17.94889]},"geometry_name":"geom","properties":{"cod_anteri":807,"nombre":"CALANA","departamen":"TACNA","longitud":-70.18611,"latitud":-17.94889,"trimestre":1,"sum_dias_o":64,"conteo_eve":57,"frecuencia":1.1,"tipo":"DCC","cat_frecue":"1-1.5","categoria":"1-1.5 DCC"}},{"type":"Feature","id":"01_06_001_03_001_512_0000_00_00.73","geometry":{"type":"Point","coordinates":[-70.48962,-17.78758]},"geometry_name":"geom","properties":{"cod_anteri":875,"nombre":"SAMA GRANDE","departamen":"TACNA","longitud":-70.48962,"latitud":-17.78758,"trimestre":1,"sum_dias_o":63,"conteo_eve":57,"frecuencia":1.1,"tipo":"DCC","cat_frecue":"1-1.5","categoria":"1-1.5 DCC"}},{"type":"Feature","id":"01_06_001_03_001_512_0000_00_00.74","geometry":{"type":"Point","coordinates":[-79.547014,-6.880794]},"geometry_name":"geom","properties":{"cod_anteri":320,"nombre":"CAYALTI","departamen":"LAMBAYEQUE","longitud":-79.547014,"latitud":-6.880794,"trimestre":1,"sum_dias_o":62,"conteo_eve":57,"frecuencia":1.1,"tipo":"DCC","cat_frecue":"1-1.5","categoria":"1-1.5 DCC"}},{"type":"Feature","id":"01_06_001_03_001_512_0000_00_00.75","geometry":{"type":"Point","coordinates":[-72.152479,-16.335668]},"geometry_name":"geom","properties":{"cod_anteri":805,"nombre":"PAMPA DE MAJES","departamen":"AREQUIPA","longitud":-72.152479,"latitud":-16.335668,"trimestre":1,"sum_dias_o":61,"conteo_eve":57,"frecuencia":1.1,"tipo":"DCC","cat_frecue":"1-1.5","categoria":"1-1.5 DCC"}},{"type":"Feature","id":"01_06_001_03_001_512_0000_00_00.76","geometry":{"type":"Point","coordinates":[-79.09,-5.643889]},"geometry_name":"geom","properties":{"cod_anteri":250,"nombre":"CHONTALI","departamen":"CAJAMARCA","longitud":-79.09,"latitud":-5.643889,"trimestre":1,"sum_dias_o":58,"conteo_eve":57,"frecuencia":1,"tipo":"DCC","cat_frecue":"1-1.5","categoria":"1-1.5 DCC"}},{"type":"Feature","id":"01_06_001_03_001_512_0000_00_00.77","geometry":{"type":"Point","coordinates":[-72.492258,-16.072878]},"geometry_name":"geom","properties":{"cod_anteri":833,"nombre":"APLAO","departamen":"AREQUIPA","longitud":-72.492258,"latitud":-16.072878,"trimestre":1,"sum_dias_o":58,"conteo_eve":57,"frecuencia":1,"tipo":"DCC","cat_frecue":"1-1.5","categoria":"1-1.5 DCC"}},{"type":"Feature","id":"01_06_001_03_001_512_0000_00_00.78","geometry":{"type":"Point","coordinates":[-71.924636,-16.583586]},"geometry_name":"geom","properties":{"cod_anteri":804,"nombre":"LA JOYA","departamen":"AREQUIPA","longitud":-71.924636,"latitud":-16.583586,"trimestre":1,"sum_dias_o":57,"conteo_eve":55,"frecuencia":1,"tipo":"DCC","cat_frecue":"1-1.5","categoria":"1-1.5 DCC"}},{"type":"Feature","id":"01_06_001_03_001_512_0000_00_00.79","geometry":{"type":"Point","coordinates":[-71.600829,-16.998608]},"geometry_name":"geom","properties":{"cod_anteri":838,"nombre":"LA HACIENDITA","departamen":"AREQUIPA","longitud":-71.600829,"latitud":-16.998608,"trimestre":1,"sum_dias_o":57,"conteo_eve":55,"frecuencia":1,"tipo":"DCC","cat_frecue":"1-1.5","categoria":"1-1.5 DCC"}},{"type":"Feature","id":"01_06_001_03_001_512_0000_00_00.80","geometry":{"type":"Point","coordinates":[-80.395039,-3.503797]},"geometry_name":"geom","properties":{"cod_anteri":132,"nombre":"PUERTO PIZARRO","departamen":"TUMBES","longitud":-80.395039,"latitud":-3.503797,"trimestre":1,"sum_dias_o":56,"conteo_eve":57,"frecuencia":1,"tipo":"DCC","cat_frecue":"1-1.5","categoria":"1-1.5 DCC"}},{"type":"Feature","id":"01_06_001_03_001_512_0000_00_00.81","geometry":{"type":"Point","coordinates":[-79.284925,-5.315231]},"geometry_name":"geom","properties":{"cod_anteri":240,"nombre":"TABACONAS","departamen":"CAJAMARCA","longitud":-79.284925,"latitud":-5.315231,"trimestre":1,"sum_dias_o":55,"conteo_eve":56,"frecuencia":1,"tipo":"DCC","cat_frecue":"1-1.5","categoria":"1-1.5 DCC"}},{"type":"Feature","id":"01_06_001_03_001_512_0000_00_00.82","geometry":{"type":"Point","coordinates":[-71.724525,-17.071609]},"geometry_name":"geom","properties":{"cod_anteri":837,"nombre":"PAMPA BLANCA","departamen":"AREQUIPA","longitud":-71.724525,"latitud":-17.071609,"trimestre":1,"sum_dias_o":55,"conteo_eve":57,"frecuencia":1,"tipo":"DCC","cat_frecue":"1-1.5","categoria":"1-1.5 DCC"}},{"type":"Feature","id":"01_06_001_03_001_512_0000_00_00.83","geometry":{"type":"Point","coordinates":[-79.757922,-4.752375]},"geometry_name":"geom","properties":{"cod_anteri":238,"nombre":"SAUSAL DE CULUCAN","departamen":"PIURA","longitud":-79.757922,"latitud":-4.752375,"trimestre":1,"sum_dias_o":53,"conteo_eve":57,"frecuencia":0.9,"tipo":"DCC","cat_frecue":"0.5-1","categoria":"0.5-1 DCC"}},{"type":"Feature","id":"01_06_001_03_001_512_0000_00_00.84","geometry":{"type":"Point","coordinates":[-70.932694,-17.17875]},"geometry_name":"geom","properties":{"cod_anteri":806,"nombre":"MOQUEGUA","departamen":"MOQUEGUA","longitud":-70.932694,"latitud":-17.17875,"trimestre":1,"sum_dias_o":53,"conteo_eve":57,"frecuencia":0.9,"tipo":"DCC","cat_frecue":"0.5-1","categoria":"0.5-1 DCC"}},{"type":"Feature","id":"01_06_001_03_001_512_0000_00_00.85","geometry":{"type":"Point","coordinates":[-79.317222,-5.917778]},"geometry_name":"geom","properties":{"cod_anteri":241,"nombre":"EL LIMON","departamen":"CAJAMARCA","longitud":-79.317222,"latitud":-5.917778,"trimestre":1,"sum_dias_o":53,"conteo_eve":55,"frecuencia":1,"tipo":"DCC","cat_frecue":"1-1.5","categoria":"1-1.5 DCC"}},{"type":"Feature","id":"01_06_001_03_001_512_0000_00_00.86","geometry":{"type":"Point","coordinates":[-80.81275,-5.527564]},"geometry_name":"geom","properties":{"cod_anteri":231,"nombre":"CHUSIS","departamen":"PIURA","longitud":-80.81275,"latitud":-5.527564,"trimestre":1,"sum_dias_o":51,"conteo_eve":57,"frecuencia":0.9,"tipo":"DCC","cat_frecue":"0.5-1","categoria":"0.5-1 DCC"}},{"type":"Feature","id":"01_06_001_03_001_512_0000_00_00.87","geometry":{"type":"Point","coordinates":[-77.122006,-11.452808]},"geometry_name":"geom","properties":{"cod_anteri":539,"nombre":"HUAYAN","departamen":"LIMA","longitud":-77.122006,"latitud":-11.452808,"trimestre":1,"sum_dias_o":51,"conteo_eve":57,"frecuencia":0.9,"tipo":"DCC","cat_frecue":"0.5-1","categoria":"0.5-1 DCC"}},{"type":"Feature","id":"01_06_001_03_001_512_0000_00_00.88","geometry":{"type":"Point","coordinates":[-79.971075,-5.194644]},"geometry_name":"geom","properties":{"cod_anteri":235,"nombre":"MORROPON","departamen":"PIURA","longitud":-79.971075,"latitud":-5.194644,"trimestre":1,"sum_dias_o":50,"conteo_eve":57,"frecuencia":0.9,"tipo":"DCC","cat_frecue":"0.5-1","categoria":"0.5-1 DCC"}},{"type":"Feature","id":"01_06_001_03_001_512_0000_00_00.89","geometry":{"type":"Point","coordinates":[-78.774156,-5.676636]},"geometry_name":"geom","properties":{"cod_anteri":252,"nombre":"JAEN","departamen":"CAJAMARCA","longitud":-78.774156,"latitud":-5.676636,"trimestre":1,"sum_dias_o":50,"conteo_eve":57,"frecuencia":0.9,"tipo":"DCC","cat_frecue":"0.5-1","categoria":"0.5-1 DCC"}},{"type":"Feature","id":"01_06_001_03_001_512_0000_00_00.90","geometry":{"type":"Point","coordinates":[-79.8355,-6.886131]},"geometry_name":"geom","properties":{"cod_anteri":332,"nombre":"REQUE","departamen":"LAMBAYEQUE","longitud":-79.8355,"latitud":-6.886131,"trimestre":1,"sum_dias_o":50,"conteo_eve":56,"frecuencia":0.9,"tipo":"DCC","cat_frecue":"0.5-1","categoria":"0.5-1 DCC"}},{"type":"Feature","id":"01_06_001_03_001_512_0000_00_00.91","geometry":{"type":"Point","coordinates":[-76.057928,-12.866892]},"geometry_name":"geom","properties":{"cod_anteri":638,"nombre":"PACARAN","departamen":"LIMA","longitud":-76.057928,"latitud":-12.866892,"trimestre":1,"sum_dias_o":50,"conteo_eve":57,"frecuencia":0.9,"tipo":"DCC","cat_frecue":"0.5-1","categoria":"0.5-1 DCC"}},{"type":"Feature","id":"01_06_001_03_001_512_0000_00_00.92","geometry":{"type":"Point","coordinates":[-73.696374,-16.231742]},"geometry_name":"geom","properties":{"cod_anteri":830,"nombre":"PUNTA ATICO","departamen":"AREQUIPA","longitud":-73.696374,"latitud":-16.231742,"trimestre":1,"sum_dias_o":50,"conteo_eve":57,"frecuencia":0.9,"tipo":"DCC","cat_frecue":"0.5-1","categoria":"0.5-1 DCC"}},{"type":"Feature","id":"01_06_001_03_001_512_0000_00_00.93","geometry":{"type":"Point","coordinates":[-70.97925,-16.67531]},"geometry_name":"geom","properties":{"cod_anteri":850,"nombre":"OMATE","departamen":"MOQUEGUA","longitud":-70.97925,"latitud":-16.67531,"trimestre":1,"sum_dias_o":50,"conteo_eve":56,"frecuencia":0.9,"tipo":"DCC","cat_frecue":"0.5-1","categoria":"0.5-1 DCC"}},{"type":"Feature","id":"01_06_001_03_001_512_0000_00_00.94","geometry":{"type":"Point","coordinates":[-75.682083,-14.378439]},"geometry_name":"geom","properties":{"cod_anteri":730,"nombre":"OCUCAJE","departamen":"ICA","longitud":-75.682083,"latitud":-14.378439,"trimestre":1,"sum_dias_o":49,"conteo_eve":55,"frecuencia":0.9,"tipo":"DCC","cat_frecue":"0.5-1","categoria":"0.5-1 DCC"}},{"type":"Feature","id":"01_06_001_03_001_512_0000_00_00.95","geometry":{"type":"Point","coordinates":[-71.373306,-17.698611]},"geometry_name":"geom","properties":{"cod_anteri":846,"nombre":"PUNTA COLES","departamen":"MOQUEGUA","longitud":-71.373306,"latitud":-17.698611,"trimestre":1,"sum_dias_o":49,"conteo_eve":57,"frecuencia":0.9,"tipo":"DCC","cat_frecue":"0.5-1","categoria":"0.5-1 DCC"}},{"type":"Feature","id":"01_06_001_03_001_512_0000_00_00.96","geometry":{"type":"Point","coordinates":[-80.505458,-3.8119]},"geometry_name":"geom","properties":{"cod_anteri":130,"nombre":"RICA PLAYA","departamen":"TUMBES","longitud":-80.505458,"latitud":-3.8119,"trimestre":1,"sum_dias_o":48,"conteo_eve":57,"frecuencia":0.8,"tipo":"DCC","cat_frecue":"0.5-1","categoria":"0.5-1 DCC"}},{"type":"Feature","id":"01_06_001_03_001_512_0000_00_00.97","geometry":{"type":"Point","coordinates":[-77.550106,-11.060681]},"geometry_name":"geom","properties":{"cod_anteri":501,"nombre":"ALCANTARILLA","departamen":"LIMA","longitud":-77.550106,"latitud":-11.060681,"trimestre":1,"sum_dias_o":48,"conteo_eve":54,"frecuencia":0.9,"tipo":"DCC","cat_frecue":"0.5-1","categoria":"0.5-1 DCC"}},{"type":"Feature","id":"01_06_001_03_001_512_0000_00_00.98","geometry":{"type":"Point","coordinates":[-80.684358,-5.246203]},"geometry_name":"geom","properties":{"cod_anteri":247,"nombre":"SAN MIGUEL","departamen":"PIURA","longitud":-80.684358,"latitud":-5.246203,"trimestre":1,"sum_dias_o":48,"conteo_eve":48,"frecuencia":1,"tipo":"DCC","cat_frecue":"1-1.5","categoria":"1-1.5 DCC"}},{"type":"Feature","id":"01_06_001_03_001_512_0000_00_00.99","geometry":{"type":"Point","coordinates":[-79.419058,-7.280092]},"geometry_name":"geom","properties":{"cod_anteri":325,"nombre":"TALLA (GUADALUPE)","departamen":"LA LIBERTAD","longitud":-79.419058,"latitud":-7.280092,"trimestre":1,"sum_dias_o":47,"conteo_eve":57,"frecuencia":0.8,"tipo":"DCC","cat_frecue":"0.5-1","categoria":"0.5-1 DCC"}},{"type":"Feature","id":"01_06_001_03_001_512_0000_00_00.100","geometry":{"type":"Point","coordinates":[-72.70156,-16.64034]},"geometry_name":"geom","properties":{"cod_anteri":832,"nombre":"CAMANA","departamen":"AREQUIPA","longitud":-72.70156,"latitud":-16.64034,"trimestre":1,"sum_dias_o":47,"conteo_eve":57,"frecuencia":0.8,"tipo":"DCC","cat_frecue":"0.5-1","categoria":"0.5-1 DCC"}},{"type":"Feature","id":"01_06_001_03_001_512_0000_00_00.101","geometry":{"type":"Point","coordinates":[-78.888603,-6.460089]},"geometry_name":"geom","properties":{"cod_anteri":353,"nombre":"COCHABAMBA","departamen":"CAJAMARCA","longitud":-78.888603,"latitud":-6.460089,"trimestre":1,"sum_dias_o":46,"conteo_eve":57,"frecuencia":0.8,"tipo":"DCC","cat_frecue":"0.5-1","categoria":"0.5-1 DCC"}},{"type":"Feature","id":"01_06_001_03_001_512_0000_00_00.102","geometry":{"type":"Point","coordinates":[-78.20825,-9.433706]},"geometry_name":"geom","properties":{"cod_anteri":435,"nombre":"BUENA VISTA","departamen":"ANCASH","longitud":-78.20825,"latitud":-9.433706,"trimestre":1,"sum_dias_o":46,"conteo_eve":56,"frecuencia":0.8,"tipo":"DCC","cat_frecue":"0.5-1","categoria":"0.5-1 DCC"}},{"type":"Feature","id":"01_06_001_03_001_512_0000_00_00.103","geometry":{"type":"Point","coordinates":[-79.122619,-6.514431]},"geometry_name":"geom","properties":{"cod_anteri":341,"nombre":"LLAMA","departamen":"CAJAMARCA","longitud":-79.122619,"latitud":-6.514431,"trimestre":1,"sum_dias_o":46,"conteo_eve":53,"frecuencia":0.9,"tipo":"DCC","cat_frecue":"0.5-1","categoria":"0.5-1 DCC"}},{"type":"Feature","id":"01_06_001_03_001_512_0000_00_00.104","geometry":{"type":"Point","coordinates":[-80.233236,-3.567322]},"geometry_name":"geom","properties":{"cod_anteri":134,"nombre":"PAPAYAL","departamen":"TUMBES","longitud":-80.233236,"latitud":-3.567322,"trimestre":1,"sum_dias_o":45,"conteo_eve":57,"frecuencia":0.8,"tipo":"DCC","cat_frecue":"0.5-1","categoria":"0.5-1 DCC"}},{"type":"Feature","id":"01_06_001_03_001_512_0000_00_00.105","geometry":{"type":"Point","coordinates":[-79.909833,-6.734375]},"geometry_name":"geom","properties":{"cod_anteri":301,"nombre":"LAMBAYEQUE","departamen":"LAMBAYEQUE","longitud":-79.909833,"latitud":-6.734375,"trimestre":1,"sum_dias_o":45,"conteo_eve":57,"frecuencia":0.8,"tipo":"DCC","cat_frecue":"0.5-1","categoria":"0.5-1 DCC"}},{"type":"Feature","id":"01_06_001_03_001_512_0000_00_00.106","geometry":{"type":"Point","coordinates":[-79.453992,-5.246806]},"geometry_name":"geom","properties":{"cod_anteri":239,"nombre":"HUANCABAMBA","departamen":"PIURA","longitud":-79.453992,"latitud":-5.246806,"trimestre":1,"sum_dias_o":44,"conteo_eve":57,"frecuencia":0.8,"tipo":"DCC","cat_frecue":"0.5-1","categoria":"0.5-1 DCC"}},{"type":"Feature","id":"01_06_001_03_001_512_0000_00_00.107","geometry":{"type":"Point","coordinates":[-77.821781,-10.673975]},"geometry_name":"geom","properties":{"cod_anteri":528,"nombre":"PARAMONGA","departamen":"LIMA","longitud":-77.821781,"latitud":-10.673975,"trimestre":1,"sum_dias_o":44,"conteo_eve":56,"frecuencia":0.8,"tipo":"DCC","cat_frecue":"0.5-1","categoria":"0.5-1 DCC"}},{"type":"Feature","id":"01_06_001_03_001_512_0000_00_00.108","geometry":{"type":"Point","coordinates":[-76.1454,-9.5707]},"geometry_name":"geom","properties":{"cod_anteri":404,"nombre":"HUANUCO","departamen":"HUANUCO","longitud":-76.1454,"latitud":-9.5707,"trimestre":1,"sum_dias_o":43,"conteo_eve":57,"frecuencia":0.8,"tipo":"DCC","cat_frecue":"0.5-1","categoria":"0.5-1 DCC"}},{"type":"Feature","id":"01_06_001_03_001_512_0000_00_00.109","geometry":{"type":"Point","coordinates":[-76.841944,-11.987444]},"geometry_name":"geom","properties":{"cod_anteri":543,"nombre":"ÐAÐA","departamen":"LIMA","longitud":-76.841944,"latitud":-11.987444,"trimestre":1,"sum_dias_o":42,"conteo_eve":56,"frecuencia":0.8,"tipo":"DCC","cat_frecue":"0.5-1","categoria":"0.5-1 DCC"}},{"type":"Feature","id":"01_06_001_03_001_512_0000_00_00.110","geometry":{"type":"Point","coordinates":[-79.768692,-6.331592]},"geometry_name":"geom","properties":{"cod_anteri":333,"nombre":"JAYANCA (LA VIÐA)","departamen":"LAMBAYEQUE","longitud":-79.768692,"latitud":-6.331592,"trimestre":1,"sum_dias_o":41,"conteo_eve":56,"frecuencia":0.7,"tipo":"DCC","cat_frecue":"0.5-1","categoria":"0.5-1 DCC"}},{"type":"Feature","id":"01_06_001_03_001_512_0000_00_00.111","geometry":{"type":"Point","coordinates":[-75.607036,-13.843]},"geometry_name":"geom","properties":{"cod_anteri":640,"nombre":"HUAMANI","departamen":"ICA","longitud":-75.607036,"latitud":-13.843,"trimestre":1,"sum_dias_o":41,"conteo_eve":57,"frecuencia":0.7,"tipo":"DCC","cat_frecue":"0.5-1","categoria":"0.5-1 DCC"}},{"type":"Feature","id":"01_06_001_03_001_512_0000_00_00.112","geometry":{"type":"Point","coordinates":[-77.043167,-12.070528]},"geometry_name":"geom","properties":{"cod_anteri":6617,"nombre":"CAMPO DE MARTE","departamen":"LIMA","longitud":-77.043167,"latitud":-12.070528,"trimestre":1,"sum_dias_o":41,"conteo_eve":57,"frecuencia":0.7,"tipo":"DCC","cat_frecue":"0.5-1","categoria":"0.5-1 DCC"}},{"type":"Feature","id":"01_06_001_03_001_512_0000_00_00.113","geometry":{"type":"Point","coordinates":[-78.947614,-6.616567]},"geometry_name":"geom","properties":{"cod_anteri":351,"nombre":"SANTA CRUZ","departamen":"CAJAMARCA","longitud":-78.947614,"latitud":-6.616567,"trimestre":1,"sum_dias_o":40,"conteo_eve":57,"frecuencia":0.7,"tipo":"DCC","cat_frecue":"0.5-1","categoria":"0.5-1 DCC"}},{"type":"Feature","id":"01_06_001_03_001_512_0000_00_00.114","geometry":{"type":"Point","coordinates":[-75.189261,-14.549389]},"geometry_name":"geom","properties":{"cod_anteri":731,"nombre":"PALPA","departamen":"ICA","longitud":-75.189261,"latitud":-14.549389,"trimestre":1,"sum_dias_o":40,"conteo_eve":57,"frecuencia":0.7,"tipo":"DCC","cat_frecue":"0.5-1","categoria":"0.5-1 DCC"}},{"type":"Feature","id":"01_06_001_03_001_512_0000_00_00.115","geometry":{"type":"Point","coordinates":[-70.867,-17.090778]},"geometry_name":"geom","properties":{"cod_anteri":852,"nombre":"YACANGO","departamen":"MOQUEGUA","longitud":-70.867,"latitud":-17.090778,"trimestre":1,"sum_dias_o":40,"conteo_eve":57,"frecuencia":0.7,"tipo":"DCC","cat_frecue":"0.5-1","categoria":"0.5-1 DCC"}},{"type":"Feature","id":"01_06_001_03_001_512_0000_00_00.116","geometry":{"type":"Point","coordinates":[-81.059692,-4.921136]},"geometry_name":"geom","properties":{"cod_anteri":230,"nombre":"LA ESPERANZA","departamen":"PIURA","longitud":-81.059692,"latitud":-4.921136,"trimestre":1,"sum_dias_o":39,"conteo_eve":54,"frecuencia":0.7,"tipo":"DCC","cat_frecue":"0.5-1","categoria":"0.5-1 DCC"}},{"type":"Feature","id":"01_06_001_03_001_512_0000_00_00.117","geometry":{"type":"Point","coordinates":[-80.169564,-5.108433]},"geometry_name":"geom","properties":{"cod_anteri":255,"nombre":"CHULUCANAS","departamen":"PIURA","longitud":-80.169564,"latitud":-5.108433,"trimestre":1,"sum_dias_o":39,"conteo_eve":49,"frecuencia":0.8,"tipo":"DCC","cat_frecue":"0.5-1","categoria":"0.5-1 DCC"}},{"type":"Feature","id":"01_06_001_03_001_512_0000_00_00.118","geometry":{"type":"Point","coordinates":[-75.711,-14.073333]},"geometry_name":"geom","properties":{"cod_anteri":700,"nombre":"SAN CAMILO","departamen":"ICA","longitud":-75.711,"latitud":-14.073333,"trimestre":1,"sum_dias_o":38,"conteo_eve":56,"frecuencia":0.7,"tipo":"DCC","cat_frecue":"0.5-1","categoria":"0.5-1 DCC"}},{"type":"Feature","id":"01_06_001_03_001_512_0000_00_00.119","geometry":{"type":"Point","coordinates":[-74.890819,-14.975011]},"geometry_name":"geom","properties":{"cod_anteri":727,"nombre":"COPARA","departamen":"ICA","longitud":-74.890819,"latitud":-14.975011,"trimestre":1,"sum_dias_o":38,"conteo_eve":57,"frecuencia":0.7,"tipo":"DCC","cat_frecue":"0.5-1","categoria":"0.5-1 DCC"}},{"type":"Feature","id":"01_06_001_03_001_512_0000_00_00.120","geometry":{"type":"Point","coordinates":[-80.616542,-5.175278]},"geometry_name":"geom","properties":{"cod_anteri":207,"nombre":"MIRAFLORES","departamen":"PIURA","longitud":-80.616542,"latitud":-5.175278,"trimestre":1,"sum_dias_o":37,"conteo_eve":49,"frecuencia":0.8,"tipo":"DCC","cat_frecue":"0.5-1","categoria":"0.5-1 DCC"}},{"type":"Feature","id":"01_06_001_03_001_512_0000_00_00.121","geometry":{"type":"Point","coordinates":[-70.767472,-17.616111]},"geometry_name":"geom","properties":{"cod_anteri":853,"nombre":"LOCUMBA","departamen":"TACNA","longitud":-70.767472,"latitud":-17.616111,"trimestre":1,"sum_dias_o":36,"conteo_eve":57,"frecuencia":0.6,"tipo":"DCC","cat_frecue":"0.5-1","categoria":"0.5-1 DCC"}},{"type":"Feature","id":"01_06_001_03_001_512_0000_00_00.122","geometry":{"type":"Point","coordinates":[-75.621022,-13.601178]},"geometry_name":"geom","properties":{"cod_anteri":639,"nombre":"HUANCANO","departamen":"ICA","longitud":-75.621022,"latitud":-13.601178,"trimestre":1,"sum_dias_o":35,"conteo_eve":57,"frecuencia":0.6,"tipo":"DCC","cat_frecue":"0.5-1","categoria":"0.5-1 DCC"}},{"type":"Feature","id":"01_06_001_03_001_512_0000_00_00.123","geometry":{"type":"Point","coordinates":[-73.870894,-15.747653]},"geometry_name":"geom","properties":{"cod_anteri":741,"nombre":"CHAPARRA","departamen":"AREQUIPA","longitud":-73.870894,"latitud":-15.747653,"trimestre":1,"sum_dias_o":34,"conteo_eve":57,"frecuencia":0.6,"tipo":"DCC","cat_frecue":"0.5-1","categoria":"0.5-1 DCC"}},{"type":"Feature","id":"01_06_001_03_001_512_0000_00_00.124","geometry":{"type":"Point","coordinates":[-75.966406,-13.741136]},"geometry_name":"geom","properties":{"cod_anteri":650,"nombre":"HACIENDA BERNALES","departamen":"ICA","longitud":-75.966406,"latitud":-13.741136,"trimestre":1,"sum_dias_o":33,"conteo_eve":57,"frecuencia":0.6,"tipo":"DCC","cat_frecue":"0.5-1","categoria":"0.5-1 DCC"}},{"type":"Feature","id":"01_06_001_03_001_512_0000_00_00.125","geometry":{"type":"Point","coordinates":[-71.271889,-17.623806]},"geometry_name":"geom","properties":{"cod_anteri":840,"nombre":"ILO","departamen":"MOQUEGUA","longitud":-71.271889,"latitud":-17.623806,"trimestre":1,"sum_dias_o":33,"conteo_eve":56,"frecuencia":0.6,"tipo":"DCC","cat_frecue":"0.5-1","categoria":"0.5-1 DCC"}},{"type":"Feature","id":"01_06_001_03_001_512_0000_00_00.126","geometry":{"type":"Point","coordinates":[-78.995122,-5.145136]},"geometry_name":"geom","properties":{"cod_anteri":242,"nombre":"SAN IGNACIO","departamen":"CAJAMARCA","longitud":-78.995122,"latitud":-5.145136,"trimestre":1,"sum_dias_o":32,"conteo_eve":57,"frecuencia":0.6,"tipo":"DCC","cat_frecue":"0.5-1","categoria":"0.5-1 DCC"}},{"type":"Feature","id":"01_06_001_03_001_512_0000_00_00.127","geometry":{"type":"Point","coordinates":[-78.65261,-7.25346]},"geometry_name":"geom","properties":{"cod_anteri":392,"nombre":"MAGDALENA","departamen":"CAJAMARCA","longitud":-78.65261,"latitud":-7.25346,"trimestre":1,"sum_dias_o":32,"conteo_eve":57,"frecuencia":0.6,"tipo":"DCC","cat_frecue":"0.5-1","categoria":"0.5-1 DCC"}},{"type":"Feature","id":"01_06_001_03_001_512_0000_00_00.128","geometry":{"type":"Point","coordinates":[-77.368392,-11.360142]},"geometry_name":"geom","properties":{"cod_anteri":534,"nombre":"LOMAS DE LACHAY","departamen":"LIMA","longitud":-77.368392,"latitud":-11.360142,"trimestre":1,"sum_dias_o":32,"conteo_eve":57,"frecuencia":0.6,"tipo":"DCC","cat_frecue":"0.5-1","categoria":"0.5-1 DCC"}},{"type":"Feature","id":"01_06_001_03_001_512_0000_00_00.129","geometry":{"type":"Point","coordinates":[-71.566347,-16.457742]},"geometry_name":"geom","properties":{"cod_anteri":799,"nombre":"HUASACACHE","departamen":"AREQUIPA","longitud":-71.566347,"latitud":-16.457742,"trimestre":1,"sum_dias_o":32,"conteo_eve":28,"frecuencia":1.1,"tipo":"DCC","cat_frecue":"1-1.5","categoria":"1-1.5 DCC"}},{"type":"Feature","id":"01_06_001_03_001_512_0000_00_00.130","geometry":{"type":"Point","coordinates":[-70.525935,-18.210651]},"geometry_name":"geom","properties":{"cod_anteri":899,"nombre":"LA YARADA","departamen":"TACNA","longitud":-70.525935,"latitud":-18.210651,"trimestre":1,"sum_dias_o":31,"conteo_eve":46,"frecuencia":0.7,"tipo":"DCC","cat_frecue":"0.5-1","categoria":"0.5-1 DCC"}},{"type":"Feature","id":"01_06_001_03_001_512_0000_00_00.131","geometry":{"type":"Point","coordinates":[-76.151667,-13.459444]},"geometry_name":"geom","properties":{"cod_anteri":791,"nombre":"FONAGRO (CHINCHA)","departamen":"ICA","longitud":-76.151667,"latitud":-13.459444,"trimestre":1,"sum_dias_o":31,"conteo_eve":35,"frecuencia":0.9,"tipo":"DCC","cat_frecue":"0.5-1","categoria":"0.5-1 DCC"}},{"type":"Feature","id":"01_06_001_03_001_512_0000_00_00.132","geometry":{"type":"Point","coordinates":[-76.1834,-9.9515]},"geometry_name":"geom","properties":{"cod_anteri":457,"nombre":"CANCHAN","departamen":"HUANUCO","longitud":-76.1834,"latitud":-9.9515,"trimestre":1,"sum_dias_o":30,"conteo_eve":32,"frecuencia":0.9,"tipo":"DCC","cat_frecue":"0.5-1","categoria":"0.5-1 DCC"}},{"type":"Feature","id":"01_06_001_03_001_512_0000_00_00.133","geometry":{"type":"Point","coordinates":[-80.735556,-4.855742]},"geometry_name":"geom","properties":{"cod_anteri":208,"nombre":"MALLARES","departamen":"PIURA","longitud":-80.735556,"latitud":-4.855742,"trimestre":1,"sum_dias_o":28,"conteo_eve":57,"frecuencia":0.5,"tipo":"DCC","cat_frecue":"0.5-1","categoria":"0.5-1 DCC"}},{"type":"Feature","id":"01_06_001_03_001_512_0000_00_00.134","geometry":{"type":"Point","coordinates":[-78.897589,-5.308497]},"geometry_name":"geom","properties":{"cod_anteri":260,"nombre":"CHIRINOS","departamen":"CAJAMARCA","longitud":-78.897589,"latitud":-5.308497,"trimestre":1,"sum_dias_o":28,"conteo_eve":32,"frecuencia":0.9,"tipo":"DCC","cat_frecue":"0.5-1","categoria":"0.5-1 DCC"}},{"type":"Feature","id":"01_06_001_03_001_512_0000_00_00.135","geometry":{"type":"Point","coordinates":[-80.569267,-3.628292]},"geometry_name":"geom","properties":{"cod_anteri":179,"nombre":"LA CRUZ","departamen":"TUMBES","longitud":-80.569267,"latitud":-3.628292,"trimestre":1,"sum_dias_o":28,"conteo_eve":22,"frecuencia":1.3,"tipo":"DCC","cat_frecue":"1-1.5","categoria":"1-1.5 DCC"}},{"type":"Feature","id":"01_06_001_03_001_512_0000_00_00.136","geometry":{"type":"Point","coordinates":[-80.279822,-4.731969]},"geometry_name":"geom","properties":{"cod_anteri":216,"nombre":"PARTIDOR","departamen":"PIURA","longitud":-80.279822,"latitud":-4.731969,"trimestre":1,"sum_dias_o":27,"conteo_eve":57,"frecuencia":0.5,"tipo":"DCC","cat_frecue":"0.5-1","categoria":"0.5-1 DCC"}},{"type":"Feature","id":"01_06_001_03_001_512_0000_00_00.137","geometry":{"type":"Point","coordinates":[-78.867222,-6.575]},"geometry_name":"geom","properties":{"cod_anteri":395,"nombre":"CHANCAY BAÐOS","departamen":"CAJAMARCA","longitud":-78.867222,"latitud":-6.575,"trimestre":1,"sum_dias_o":27,"conteo_eve":33,"frecuencia":0.8,"tipo":"DCC","cat_frecue":"0.5-1","categoria":"0.5-1 DCC"}},{"type":"Feature","id":"01_06_001_03_001_512_0000_00_00.138","geometry":{"type":"Point","coordinates":[-78.897667,-5.67175]},"geometry_name":"geom","properties":{"cod_anteri":349,"nombre":"LA CASCARILLA","departamen":"CAJAMARCA","longitud":-78.897667,"latitud":-5.67175,"trimestre":1,"sum_dias_o":25,"conteo_eve":32,"frecuencia":0.8,"tipo":"DCC","cat_frecue":"0.5-1","categoria":"0.5-1 DCC"}},{"type":"Feature","id":"01_06_001_03_001_512_0000_00_00.139","geometry":{"type":"Point","coordinates":[-79.561175,-7.118872]},"geometry_name":"geom","properties":{"cod_anteri":313,"nombre":"CHERREPE","departamen":"LA LIBERTAD","longitud":-79.561175,"latitud":-7.118872,"trimestre":1,"sum_dias_o":25,"conteo_eve":23,"frecuencia":1.1,"tipo":"DCC","cat_frecue":"1-1.5","categoria":"1-1.5 DCC"}},{"type":"Feature","id":"01_06_001_03_001_512_0000_00_00.140","geometry":{"type":"Point","coordinates":[-70.87858,-16.74971]},"geometry_name":"geom","properties":{"cod_anteri":158301,"nombre":"QUINISTAQUILLAS","departamen":"MOQUEGUA","longitud":-70.87858,"latitud":-16.74971,"trimestre":1,"sum_dias_o":24,"conteo_eve":57,"frecuencia":0.4,"tipo":"DCC","cat_frecue":"0.1-0.5","categoria":"0.1-0.5 DCC"}},{"type":"Feature","id":"01_06_001_03_001_512_0000_00_00.141","geometry":{"type":"Point","coordinates":[-78.162319,-10.068119]},"geometry_name":"geom","properties":{"cod_anteri":530,"nombre":"HUARMEY","departamen":"ANCASH","longitud":-78.162319,"latitud":-10.068119,"trimestre":1,"sum_dias_o":24,"conteo_eve":55,"frecuencia":0.4,"tipo":"DCC","cat_frecue":"0.1-0.5","categoria":"0.1-0.5 DCC"}},{"type":"Feature","id":"01_06_001_03_001_512_0000_00_00.142","geometry":{"type":"Point","coordinates":[-80.650549,-3.93905]},"geometry_name":"geom","properties":{"cod_anteri":136,"nombre":"CAÐAVERAL","departamen":"TUMBES","longitud":-80.650549,"latitud":-3.93905,"trimestre":1,"sum_dias_o":24,"conteo_eve":46,"frecuencia":0.5,"tipo":"DCC","cat_frecue":"0.5-1","categoria":"0.5-1 DCC"}},{"type":"Feature","id":"01_06_001_03_001_512_0000_00_00.143","geometry":{"type":"Point","coordinates":[-80.547175,-4.642878]},"geometry_name":"geom","properties":{"cod_anteri":152103,"nombre":"LANCONES","departamen":"PIURA","longitud":-80.547175,"latitud":-4.642878,"trimestre":1,"sum_dias_o":23,"conteo_eve":57,"frecuencia":0.4,"tipo":"DCC","cat_frecue":"0.1-0.5","categoria":"0.1-0.5 DCC"}},{"type":"Feature","id":"01_06_001_03_001_512_0000_00_00.144","geometry":{"type":"Point","coordinates":[-70.251528,-18.026889]},"geometry_name":"geom","properties":{"cod_anteri":901,"nombre":"JORGE BASADRE","departamen":"TACNA","longitud":-70.251528,"latitud":-18.026889,"trimestre":1,"sum_dias_o":23,"conteo_eve":28,"frecuencia":0.8,"tipo":"DCC","cat_frecue":"0.5-1","categoria":"0.5-1 DCC"}},{"type":"Feature","id":"01_06_001_03_001_512_0000_00_00.145","geometry":{"type":"Point","coordinates":[-80.742622,-5.454494]},"geometry_name":"geom","properties":{"cod_anteri":152100,"nombre":"BERNAL","departamen":"PIURA","longitud":-80.742622,"latitud":-5.454494,"trimestre":1,"sum_dias_o":22,"conteo_eve":57,"frecuencia":0.4,"tipo":"DCC","cat_frecue":"0.1-0.5","categoria":"0.1-0.5 DCC"}},{"type":"Feature","id":"01_06_001_03_001_512_0000_00_00.146","geometry":{"type":"Point","coordinates":[-79.431369,-5.339794]},"geometry_name":"geom","properties":{"cod_anteri":152126,"nombre":"SONDORILLO","departamen":"PIURA","longitud":-79.431369,"latitud":-5.339794,"trimestre":1,"sum_dias_o":22,"conteo_eve":57,"frecuencia":0.4,"tipo":"DCC","cat_frecue":"0.1-0.5","categoria":"0.1-0.5 DCC"}},{"type":"Feature","id":"01_06_001_03_001_512_0000_00_00.147","geometry":{"type":"Point","coordinates":[-79.427897,-6.654931]},"geometry_name":"geom","properties":{"cod_anteri":335,"nombre":"TINAJONES","departamen":"LAMBAYEQUE","longitud":-79.427897,"latitud":-6.654931,"trimestre":1,"sum_dias_o":22,"conteo_eve":57,"frecuencia":0.4,"tipo":"DCC","cat_frecue":"0.1-0.5","categoria":"0.1-0.5 DCC"}},{"type":"Feature","id":"01_06_001_03_001_512_0000_00_00.148","geometry":{"type":"Point","coordinates":[-79.153222,-7.225028]},"geometry_name":"geom","properties":{"cod_anteri":396,"nombre":"MONTE GRANDE","departamen":"CAJAMARCA","longitud":-79.153222,"latitud":-7.225028,"trimestre":1,"sum_dias_o":22,"conteo_eve":26,"frecuencia":0.8,"tipo":"DCC","cat_frecue":"0.5-1","categoria":"0.5-1 DCC"}},{"type":"Feature","id":"01_06_001_03_001_512_0000_00_00.149","geometry":{"type":"Point","coordinates":[-70.13889,-17.87889]},"geometry_name":"geom","properties":{"cod_anteri":862,"nombre":"CALIENTES","departamen":"TACNA","longitud":-70.13889,"latitud":-17.87889,"trimestre":1,"sum_dias_o":22,"conteo_eve":24,"frecuencia":0.9,"tipo":"DCC","cat_frecue":"0.5-1","categoria":"0.5-1 DCC"}},{"type":"Feature","id":"01_06_001_03_001_512_0000_00_00.150","geometry":{"type":"Point","coordinates":[-79.088619,-4.999525]},"geometry_name":"geom","properties":{"cod_anteri":220,"nombre":"NAMBALLE","departamen":"CAJAMARCA","longitud":-79.088619,"latitud":-4.999525,"trimestre":1,"sum_dias_o":22,"conteo_eve":21,"frecuencia":1,"tipo":"DCC","cat_frecue":"1-1.5","categoria":"1-1.5 DCC"}},{"type":"Feature","id":"01_06_001_03_001_512_0000_00_00.151","geometry":{"type":"Point","coordinates":[-76.200272,-13.030508]},"geometry_name":"geom","properties":{"cod_anteri":6230,"nombre":"SOCSI CAÐETE","departamen":"LIMA","longitud":-76.200272,"latitud":-13.030508,"trimestre":1,"sum_dias_o":21,"conteo_eve":17,"frecuencia":1.2,"tipo":"DCC","cat_frecue":"1-1.5","categoria":"1-1.5 DCC"}},{"type":"Feature","id":"01_06_001_03_001_512_0000_00_00.152","geometry":{"type":"Point","coordinates":[-80.401817,-3.975942]},"geometry_name":"geom","properties":{"cod_anteri":139,"nombre":"CABO INGA","departamen":"TUMBES","longitud":-80.401817,"latitud":-3.975942,"trimestre":1,"sum_dias_o":20,"conteo_eve":28,"frecuencia":0.7,"tipo":"DCC","cat_frecue":"0.5-1","categoria":"0.5-1 DCC"}},{"type":"Feature","id":"01_06_001_03_001_512_0000_00_00.153","geometry":{"type":"Point","coordinates":[-72.918314,-15.548114]},"geometry_name":"geom","properties":{"cod_anteri":157300,"nombre":"CHICHAS","departamen":"AREQUIPA","longitud":-72.918314,"latitud":-15.548114,"trimestre":1,"sum_dias_o":19,"conteo_eve":57,"frecuencia":0.3,"tipo":"DCC","cat_frecue":"0.1-0.5","categoria":"0.1-0.5 DCC"}},{"type":"Feature","id":"01_06_001_03_001_512_0000_00_00.154","geometry":{"type":"Point","coordinates":[-75.213056,-14.526475]},"geometry_name":"geom","properties":{"cod_anteri":698,"nombre":"RIO GRANDE","departamen":"ICA","longitud":-75.213056,"latitud":-14.526475,"trimestre":1,"sum_dias_o":19,"conteo_eve":38,"frecuencia":0.5,"tipo":"DCC","cat_frecue":"0.5-1","categoria":"0.5-1 DCC"}},{"type":"Feature","id":"01_06_001_03_001_512_0000_00_00.155","geometry":{"type":"Point","coordinates":[-81.218153,-4.261981]},"geometry_name":"geom","properties":{"cod_anteri":209,"nombre":"EL ALTO","departamen":"PIURA","longitud":-81.218153,"latitud":-4.261981,"trimestre":1,"sum_dias_o":18,"conteo_eve":57,"frecuencia":0.3,"tipo":"DCC","cat_frecue":"0.1-0.5","categoria":"0.1-0.5 DCC"}},{"type":"Feature","id":"01_06_001_03_001_512_0000_00_00.156","geometry":{"type":"Point","coordinates":[-78.47727,-7.76747]},"geometry_name":"geom","properties":{"cod_anteri":153101,"nombre":"CALLANCAS","departamen":"LA LIBERTAD","longitud":-78.47727,"latitud":-7.76747,"trimestre":1,"sum_dias_o":17,"conteo_eve":49,"frecuencia":0.3,"tipo":"DCC","cat_frecue":"0.1-0.5","categoria":"0.1-0.5 DCC"}},{"type":"Feature","id":"01_06_001_03_001_512_0000_00_00.157","geometry":{"type":"Point","coordinates":[-70.951694,-17.860083]},"geometry_name":"geom","properties":{"cod_anteri":858,"nombre":"ITE","departamen":"TACNA","longitud":-70.951694,"latitud":-17.860083,"trimestre":1,"sum_dias_o":17,"conteo_eve":23,"frecuencia":0.7,"tipo":"DCC","cat_frecue":"0.5-1","categoria":"0.5-1 DCC"}},{"type":"Feature","id":"01_06_001_03_001_512_0000_00_00.158","geometry":{"type":"Point","coordinates":[-79.600019,-6.801411]},"geometry_name":"geom","properties":{"cod_anteri":306,"nombre":"SIPAN","departamen":"LAMBAYEQUE","longitud":-79.600019,"latitud":-6.801411,"trimestre":1,"sum_dias_o":16,"conteo_eve":23,"frecuencia":0.7,"tipo":"DCC","cat_frecue":"0.5-1","categoria":"0.5-1 DCC"}},{"type":"Feature","id":"01_06_001_03_001_512_0000_00_00.159","geometry":{"type":"Point","coordinates":[-77.606028,-11.123861]},"geometry_name":"geom","properties":{"cod_anteri":111163,"nombre":"UNJF SANCHEZ CARRION - HUACHO","departamen":"LIMA","longitud":-77.606028,"latitud":-11.123861,"trimestre":1,"sum_dias_o":16,"conteo_eve":12,"frecuencia":1.3,"tipo":"DCC","cat_frecue":"1-1.5","categoria":"1-1.5 DCC"}},{"type":"Feature","id":"01_06_001_03_001_512_0000_00_00.160","geometry":{"type":"Point","coordinates":[-78.92673,-7.42819]},"geometry_name":"geom","properties":{"cod_anteri":153201,"nombre":"SAN BENITO","departamen":"CAJAMARCA","longitud":-78.92673,"latitud":-7.42819,"trimestre":1,"sum_dias_o":15,"conteo_eve":57,"frecuencia":0.3,"tipo":"DCC","cat_frecue":"0.1-0.5","categoria":"0.1-0.5 DCC"}},{"type":"Feature","id":"01_06_001_03_001_512_0000_00_00.161","geometry":{"type":"Point","coordinates":[-78.9851,-8.11203]},"geometry_name":"geom","properties":{"cod_anteri":406,"nombre":"TRUJILLO","departamen":"LA LIBERTAD","longitud":-78.9851,"latitud":-8.11203,"trimestre":1,"sum_dias_o":15,"conteo_eve":16,"frecuencia":0.9,"tipo":"DCC","cat_frecue":"0.5-1","categoria":"0.5-1 DCC"}},{"type":"Feature","id":"01_06_001_03_001_512_0000_00_00.162","geometry":{"type":"Point","coordinates":[-79.819081,-5.837222]},"geometry_name":"geom","properties":{"cod_anteri":262,"nombre":"PASABAR","departamen":"LAMBAYEQUE","longitud":-79.819081,"latitud":-5.837222,"trimestre":1,"sum_dias_o":15,"conteo_eve":14,"frecuencia":1.1,"tipo":"DCC","cat_frecue":"1-1.5","categoria":"1-1.5 DCC"}},{"type":"Feature","id":"01_06_001_03_001_512_0000_00_00.163","geometry":{"type":"Point","coordinates":[-75.103975,-14.237308]},"geometry_name":"geom","properties":{"cod_anteri":157102,"nombre":"PAMPA BLANCA","departamen":"ICA","longitud":-75.103975,"latitud":-14.237308,"trimestre":1,"sum_dias_o":14,"conteo_eve":54,"frecuencia":0.3,"tipo":"DCC","cat_frecue":"0.1-0.5","categoria":"0.1-0.5 DCC"}},{"type":"Feature","id":"01_06_001_03_001_512_0000_00_00.164","geometry":{"type":"Point","coordinates":[-75.720522,-13.999783]},"geometry_name":"geom","properties":{"cod_anteri":794,"nombre":"TACAMA","departamen":"ICA","longitud":-75.720522,"latitud":-13.999783,"trimestre":1,"sum_dias_o":14,"conteo_eve":27,"frecuencia":0.5,"tipo":"DCC","cat_frecue":"0.5-1","categoria":"0.5-1 DCC"}},{"type":"Feature","id":"01_06_001_03_001_512_0000_00_00.165","geometry":{"type":"Point","coordinates":[-79.857942,-5.339775]},"geometry_name":"geom","properties":{"cod_anteri":2122,"nombre":"MALACASI","departamen":"PIURA","longitud":-79.857942,"latitud":-5.339775,"trimestre":1,"sum_dias_o":14,"conteo_eve":23,"frecuencia":0.6,"tipo":"DCC","cat_frecue":"0.5-1","categoria":"0.5-1 DCC"}},{"type":"Feature","id":"01_06_001_03_001_512_0000_00_00.166","geometry":{"type":"Point","coordinates":[-79.320617,-6.863944]},"geometry_name":"geom","properties":{"cod_anteri":302,"nombre":"OYOTUN","departamen":"LAMBAYEQUE","longitud":-79.320617,"latitud":-6.863944,"trimestre":1,"sum_dias_o":14,"conteo_eve":25,"frecuencia":0.6,"tipo":"DCC","cat_frecue":"0.5-1","categoria":"0.5-1 DCC"}},{"type":"Feature","id":"01_06_001_03_001_512_0000_00_00.167","geometry":{"type":"Point","coordinates":[-72.270447,-15.683287]},"geometry_name":"geom","properties":{"cod_anteri":157313,"nombre":"AYO","departamen":"AREQUIPA","longitud":-72.270447,"latitud":-15.683287,"trimestre":1,"sum_dias_o":12,"conteo_eve":57,"frecuencia":0.2,"tipo":"DCC","cat_frecue":"0.1-0.5","categoria":"0.1-0.5 DCC"}},{"type":"Feature","id":"01_06_001_03_001_512_0000_00_00.168","geometry":{"type":"Point","coordinates":[-76.93931,-12.08221]},"geometry_name":"geom","properties":{"cod_anteri":0,"nombre":"VON HUMBOLDT","departamen":"LIMA","longitud":-76.93931,"latitud":-12.08221,"trimestre":1,"sum_dias_o":12,"conteo_eve":10,"frecuencia":1.2,"tipo":"DCC","cat_frecue":"1-1.5","categoria":"1-1.5 DCC"}},{"type":"Feature","id":"01_06_001_03_001_512_0000_00_00.169","geometry":{"type":"Point","coordinates":[-80.204625,-5.924606]},"geometry_name":"geom","properties":{"cod_anteri":105122,"nombre":"CERRO DE ARENA","departamen":"LAMBAYEQUE","longitud":-80.204625,"latitud":-5.924606,"trimestre":1,"sum_dias_o":11,"conteo_eve":11,"frecuencia":1,"tipo":"DCC","cat_frecue":"1-1.5","categoria":"1-1.5 DCC"}},{"type":"Feature","id":"01_06_001_03_001_512_0000_00_00.170","geometry":{"type":"Point","coordinates":[-79.355716,-6.410091]},"geometry_name":"geom","properties":{"cod_anteri":153103,"nombre":"TOCMOCHE","departamen":"CAJAMARCA","longitud":-79.355716,"latitud":-6.410091,"trimestre":1,"sum_dias_o":10,"conteo_eve":57,"frecuencia":0.2,"tipo":"DCC","cat_frecue":"0.1-0.5","categoria":"0.1-0.5 DCC"}},{"type":"Feature","id":"01_06_001_03_001_512_0000_00_00.171","geometry":{"type":"Point","coordinates":[-79.870486,-5.03825]},"geometry_name":"geom","properties":{"cod_anteri":2110,"nombre":"SANTO DOMINGO","departamen":"PIURA","longitud":-79.870486,"latitud":-5.03825,"trimestre":1,"sum_dias_o":10,"conteo_eve":20,"frecuencia":0.5,"tipo":"DCC","cat_frecue":"0.5-1","categoria":"0.5-1 DCC"}},{"type":"Feature","id":"01_06_001_03_001_512_0000_00_00.172","geometry":{"type":"Point","coordinates":[-76.5,-12.083333]},"geometry_name":"geom","properties":{"cod_anteri":156100,"nombre":"ANTIOQUIA","departamen":"LIMA","longitud":-76.5,"latitud":-12.083333,"trimestre":1,"sum_dias_o":9,"conteo_eve":56,"frecuencia":0.2,"tipo":"DCC","cat_frecue":"0.1-0.5","categoria":"0.1-0.5 DCC"}}],"crs":{"type":"name","properties":{"name":"urn:ogc:def:crs:EPSG::4326"}}}